start=new Date('2022-11-17T00:00:00.000Z').valueOf();
sats=[{"DECAY_DATE":null,"PERIOD":"95.438","OBJECT_TYPE":"PAYLOAD","TIME_SYSTEM":"UTC","CLASSIFICATION_TYPE":"U","ECCENTRICITY":"0.00025950","GP_ID":"218016328","LAUNCH_DATE":"2022-02-21","TLE_LINE2":"2 51748  53.2182 336.2233 0002595  33.9852 326.1306 15.08833232 41192","INCLINATION":"53.2182","MEAN_ANOMALY":"326.1306","OBJECT_NAME":"STARLINK-3501","FILE":"3660705","BSTAR":"-0.00003044700000","MEAN_MOTION":"15.08833232","REF_FRAME":"TEME","TLE_LINE1":"1 51748U 22016AL  22320.76070650 -.00000773  00000-0 -30447-4 0  9997","MEAN_MOTION_DDOT":"0.0000000000000","PERIAPSIS":"537.971","OBJECT_ID":"2022-016AL","COUNTRY_CODE":"US","NORAD_CAT_ID":"51748","MEAN_ELEMENT_THEORY":"SGP4","RCS_SIZE":"LARGE","APOAPSIS":"541.561","REV_AT_EPOCH":"4119","ARG_OF_PERICENTER":"33.9852","ELEMENT_SET_NO":"999","EPHEMERIS_TYPE":"0","SEMIMAJOR_AXIS":"6917.901","RA_OF_ASC_NODE":"336.2233","CENTER_NAME":"EARTH","SITE":"AFETR","MEAN_MOTION_DOT":"-0.00000773","EPOCH":"2022-11-16T18:15:25.041600"},{"APOAPSIS":"541.407","REV_AT_EPOCH":"4105","ELEMENT_SET_NO":"999","ARG_OF_PERICENTER":"33.4349","EPHEMERIS_TYPE":"0","SEMIMAJOR_AXIS":"6917.892","RA_OF_ASC_NODE":"346.1765","SITE":"AFETR","CENTER_NAME":"EARTH","MEAN_MOTION_DOT":"-0.00000284","EPOCH":"2022-11-16T18:31:20.742240","MEAN_MOTION":"15.08836291","REF_FRAME":"TEME","MEAN_MOTION_DDOT":"0.0000000000000","TLE_LINE1":"1 51749U 22016AM  22320.77176785 -.00000284  00000-0  25218-6 0  9993","PERIAPSIS":"538.107","NORAD_CAT_ID":"51749","COUNTRY_CODE":"US","OBJECT_ID":"2022-016AM","MEAN_ELEMENT_THEORY":"SGP4","RCS_SIZE":"LARGE","ECCENTRICITY":"0.00023850","GP_ID":"218016576","LAUNCH_DATE":"2022-02-21","TLE_LINE2":"2 51749  53.2167 346.1765 0002385  33.4349 326.6794 15.08836291 41058","INCLINATION":"53.2167","MEAN_ANOMALY":"326.6794","OBJECT_NAME":"STARLINK-3451","FILE":"3660705","BSTAR":"0.00000025218000","DECAY_DATE":null,"PERIOD":"95.438","OBJECT_TYPE":"PAYLOAD","TIME_SYSTEM":"UTC","CLASSIFICATION_TYPE":"U"},{"OBJECT_NAME":"STARLINK-3505","MEAN_ANOMALY":"329.9173","FILE":"3660705","BSTAR":"0.00025800000000","ECCENTRICITY":"0.00031760","GP_ID":"218017329","LAUNCH_DATE":"2022-02-21","TLE_LINE2":"2 51750  53.2170 336.2556 0003176  30.2001 329.9173 15.08846077 41196","INCLINATION":"53.2170","CLASSIFICATION_TYPE":"U","TIME_SYSTEM":"UTC","DECAY_DATE":null,"OBJECT_TYPE":"PAYLOAD","PERIOD":"95.437","RA_OF_ASC_NODE":"336.2556","MEAN_MOTION_DOT":"0.00003821","SITE":"AFETR","CENTER_NAME":"EARTH","EPOCH":"2022-11-16T18:04:47.600544","REV_AT_EPOCH":"4119","APOAPSIS":"541.924","EPHEMERIS_TYPE":"0","ARG_OF_PERICENTER":"30.2001","ELEMENT_SET_NO":"999","SEMIMAJOR_AXIS":"6917.862","OBJECT_ID":"2022-016AN","COUNTRY_CODE":"US","NORAD_CAT_ID":"51750","MEAN_ELEMENT_THEORY":"SGP4","RCS_SIZE":"LARGE","MEAN_MOTION":"15.08846077","MEAN_MOTION_DDOT":"0.0000000000000","TLE_LINE1":"1 51750U 22016AN  22320.75332871  .00003821  00000-0  25800-3 0  9996","REF_FRAME":"TEME","PERIAPSIS":"537.530"},{"ELEMENT_SET_NO":"999","ARG_OF_PERICENTER":"37.5506","EPHEMERIS_TYPE":"0","SEMIMAJOR_AXIS":"6917.850","APOAPSIS":"541.958","REV_AT_EPOCH":"4116","EPOCH":"2022-11-16T13:34:32.233440","RA_OF_ASC_NODE":"337.1049","CENTER_NAME":"EARTH","SITE":"AFETR","MEAN_MOTION_DOT":"0.00002420","PERIAPSIS":"537.471","MEAN_MOTION":"15.08849995","REF_FRAME":"TEME","TLE_LINE1":"1 51751U 22016AP  22320.56565085  .00002420  00000-0  17006-3 0  9994","MEAN_MOTION_DDOT":"0.0000000000000","MEAN_ELEMENT_THEORY":"SGP4","RCS_SIZE":"LARGE","COUNTRY_CODE":"US","OBJECT_ID":"2022-016AP","NORAD_CAT_ID":"51751","GP_ID":"218017575","TLE_LINE2":"2 51751  53.2165 337.1049 0003243  37.5506 322.5712 15.08849995 41160","LAUNCH_DATE":"2022-02-21","INCLINATION":"53.2165","ECCENTRICITY":"0.00032430","FILE":"3660705","BSTAR":"0.00017006000000","MEAN_ANOMALY":"322.5712","OBJECT_NAME":"STARLINK-3506","PERIOD":"95.437","OBJECT_TYPE":"PAYLOAD","DECAY_DATE":null,"TIME_SYSTEM":"UTC","CLASSIFICATION_TYPE":"U"},{"BSTAR":"0.00008130000000","FILE":"3660705","OBJECT_NAME":"STARLINK-3511","MEAN_ANOMALY":"328.3171","INCLINATION":"53.2179","TLE_LINE2":"2 51752  53.2179 336.2729 0002621  31.7979 328.3171 15.08830337 41196","LAUNCH_DATE":"2022-02-21","GP_ID":"218015828","ECCENTRICITY":"0.00026210","CLASSIFICATION_TYPE":"U","TIME_SYSTEM":"UTC","OBJECT_TYPE":"PAYLOAD","PERIOD":"95.438","DECAY_DATE":null,"EPOCH":"2022-11-16T17:59:30.535008","MEAN_MOTION_DOT":"0.00001005","SITE":"AFETR","CENTER_NAME":"EARTH","RA_OF_ASC_NODE":"336.2729","SEMIMAJOR_AXIS":"6917.910","EPHEMERIS_TYPE":"0","ARG_OF_PERICENTER":"31.7979","ELEMENT_SET_NO":"999","REV_AT_EPOCH":"4119","APOAPSIS":"541.588","RCS_SIZE":"LARGE","MEAN_ELEMENT_THEORY":"SGP4","NORAD_CAT_ID":"51752","COUNTRY_CODE":"US","OBJECT_ID":"2022-016AQ","PERIAPSIS":"537.962","TLE_LINE1":"1 51752U 22016AQ  22320.74965897  .00001005  00000-0  81300-4 0  9997","MEAN_MOTION_DDOT":"0.0000000000000","REF_FRAME":"TEME","MEAN_MOTION":"15.08830337"},{"MEAN_MOTION":"15.08844997","REF_FRAME":"TEME","MEAN_MOTION_DDOT":"0.0000000000000","TLE_LINE1":"1 51753U 22016AR  22320.75701154  .00002270  00000-0  16068-3 0  9996","PERIAPSIS":"538.028","NORAD_CAT_ID":"51753","COUNTRY_CODE":"US","OBJECT_ID":"2022-016AR","MEAN_ELEMENT_THEORY":"SGP4","RCS_SIZE":"LARGE","APOAPSIS":"541.432","REV_AT_EPOCH":"4119","ELEMENT_SET_NO":"999","ARG_OF_PERICENTER":"31.6680","EPHEMERIS_TYPE":"0","SEMIMAJOR_AXIS":"6917.865","RA_OF_ASC_NODE":"336.2425","SITE":"AFETR","CENTER_NAME":"EARTH","MEAN_MOTION_DOT":"0.00002270","EPOCH":"2022-11-16T18:10:05.797056","DECAY_DATE":null,"PERIOD":"95.437","OBJECT_TYPE":"PAYLOAD","TIME_SYSTEM":"UTC","CLASSIFICATION_TYPE":"U","ECCENTRICITY":"0.00024600","GP_ID":"218016076","LAUNCH_DATE":"2022-02-21","TLE_LINE2":"2 51753  53.2167 336.2425 0002460  31.6680 328.4460 15.08844997 41195","INCLINATION":"53.2167","MEAN_ANOMALY":"328.4460","OBJECT_NAME":"STARLINK-3507","FILE":"3660705","BSTAR":"0.00016068000000"},{"LAUNCH_DATE":"2022-02-21","TLE_LINE2":"2 51754  53.2183 336.2954 0003056  28.8461 331.2699 15.08842159 41192","INCLINATION":"53.2183","GP_ID":"218016829","ECCENTRICITY":"0.00030560","BSTAR":"0.00011135000000","FILE":"3660705","OBJECT_NAME":"STARLINK-3457","MEAN_ANOMALY":"331.2699","OBJECT_TYPE":"PAYLOAD","PERIOD":"95.437","DECAY_DATE":null,"CLASSIFICATION_TYPE":"U","TIME_SYSTEM":"UTC","SEMIMAJOR_AXIS":"6917.874","EPHEMERIS_TYPE":"0","ELEMENT_SET_NO":"999","ARG_OF_PERICENTER":"28.8461","REV_AT_EPOCH":"4119","APOAPSIS":"541.853","EPOCH":"2022-11-16T17:50:17.086848","MEAN_MOTION_DOT":"0.00001484","SITE":"AFETR","CENTER_NAME":"EARTH","RA_OF_ASC_NODE":"336.2954","PERIAPSIS":"537.625","MEAN_MOTION_DDOT":"0.0000000000000","TLE_LINE1":"1 51754U 22016AS  22320.74325332  .00001484  00000-0  11135-3 0  9992","REF_FRAME":"TEME","MEAN_MOTION":"15.08842159","RCS_SIZE":"LARGE","MEAN_ELEMENT_THEORY":"SGP4","COUNTRY_CODE":"US","OBJECT_ID":"2022-016AS","NORAD_CAT_ID":"51754"},{"EPHEMERIS_TYPE":"0","ELEMENT_SET_NO":"999","ARG_OF_PERICENTER":"28.2499","SEMIMAJOR_AXIS":"6917.860","REV_AT_EPOCH":"4119","APOAPSIS":"541.785","EPOCH":"2022-11-16T17:54:12.270240","RA_OF_ASC_NODE":"336.2897","MEAN_MOTION_DOT":"0.00004191","CENTER_NAME":"EARTH","SITE":"AFETR","PERIAPSIS":"537.665","MEAN_MOTION":"15.08846633","TLE_LINE1":"1 51755U 22016AT  22320.74597535  .00004191  00000-0  28120-3 0  9999","MEAN_MOTION_DDOT":"0.0000000000000","REF_FRAME":"TEME","MEAN_ELEMENT_THEORY":"SGP4","RCS_SIZE":"LARGE","OBJECT_ID":"2022-016AT","COUNTRY_CODE":"US","NORAD_CAT_ID":"51755","GP_ID":"218017075","INCLINATION":"53.2161","TLE_LINE2":"2 51755  53.2161 336.2897 0002978  28.2499 331.8654 15.08846633 41190","LAUNCH_DATE":"2022-02-21","ECCENTRICITY":"0.00029780","FILE":"3660705","BSTAR":"0.00028120000000","OBJECT_NAME":"STARLINK-3460","MEAN_ANOMALY":"331.8654","OBJECT_TYPE":"PAYLOAD","PERIOD":"95.437","DECAY_DATE":null,"CLASSIFICATION_TYPE":"U","TIME_SYSTEM":"UTC"},{"TIME_SYSTEM":"UTC","CLASSIFICATION_TYPE":"U","DECAY_DATE":null,"PERIOD":"95.438","OBJECT_TYPE":"PAYLOAD","MEAN_ANOMALY":"327.8635","OBJECT_NAME":"STARLINK-3513","BSTAR":"0.00011891000000","FILE":"3660705","ECCENTRICITY":"0.00026530","LAUNCH_DATE":"2022-02-21","TLE_LINE2":"2 51756  53.2179 336.1294 0002653  32.2519 327.8635 15.08836478 41200","INCLINATION":"53.2179","GP_ID":"218016329","OBJECT_ID":"2022-016AU","COUNTRY_CODE":"US","NORAD_CAT_ID":"51756","RCS_SIZE":"LARGE","MEAN_ELEMENT_THEORY":"SGP4","REF_FRAME":"TEME","MEAN_MOTION_DDOT":"0.0000000000000","TLE_LINE1":"1 51756U 22016AU  22320.78277829  .00001604  00000-0  11891-3 0  9998","MEAN_MOTION":"15.08836478","PERIAPSIS":"537.921","CENTER_NAME":"EARTH","SITE":"AFETR","MEAN_MOTION_DOT":"0.00001604","RA_OF_ASC_NODE":"336.1294","EPOCH":"2022-11-16T18:47:12.044256","APOAPSIS":"541.591","REV_AT_EPOCH":"4120","SEMIMAJOR_AXIS":"6917.891","ELEMENT_SET_NO":"999","ARG_OF_PERICENTER":"32.2519","EPHEMERIS_TYPE":"0"},{"OBJECT_TYPE":"PAYLOAD","PERIOD":"95.438","DECAY_DATE":null,"CLASSIFICATION_TYPE":"U","TIME_SYSTEM":"UTC","GP_ID":"218016577","TLE_LINE2":"2 51757  53.2188 336.1452 0002885  33.0260 327.0912 15.08835007 41203","LAUNCH_DATE":"2022-02-21","INCLINATION":"53.2188","ECCENTRICITY":"0.00028850","FILE":"3660705","BSTAR":"-0.00002279700000","OBJECT_NAME":"STARLINK-3459","MEAN_ANOMALY":"327.0912","PERIAPSIS":"537.765","MEAN_MOTION":"15.08835007","TLE_LINE1":"1 51757U 22016AV  22320.77909347 -.00000651  00000-0 -22797-4 0  9996","MEAN_MOTION_DDOT":"0.0000000000000","REF_FRAME":"TEME","MEAN_ELEMENT_THEORY":"SGP4","RCS_SIZE":"LARGE","OBJECT_ID":"2022-016AV","COUNTRY_CODE":"US","NORAD_CAT_ID":"51757","EPHEMERIS_TYPE":"0","ARG_OF_PERICENTER":"33.0260","ELEMENT_SET_NO":"999","SEMIMAJOR_AXIS":"6917.896","REV_AT_EPOCH":"4120","APOAPSIS":"541.756","EPOCH":"2022-11-16T18:41:53.675808","RA_OF_ASC_NODE":"336.1452","MEAN_MOTION_DOT":"-0.00000651","SITE":"AFETR","CENTER_NAME":"EARTH"}];
